{
  "links" : {
    "next" : "https://api.nasa.gov/neo/rest/v1/feed?start_date=2011-08-09&end_date=2011-08-09&detailed=true&api_key=t0TVs3DtDT2H8Oy2Zy8m2eVrNsAVKAexjcZXUckd",
    "prev" : "https://api.nasa.gov/neo/rest/v1/feed?start_date=2011-08-07&end_date=2011-08-07&detailed=true&api_key=t0TVs3DtDT2H8Oy2Zy8m2eVrNsAVKAexjcZXUckd",
    "self" : "https://api.nasa.gov/neo/rest/v1/feed?start_date=2011-08-08&end_date=2011-08-08&detailed=true&api_key=t0TVs3DtDT2H8Oy2Zy8m2eVrNsAVKAexjcZXUckd"
  },
  "element_count" : 7,
  "near_earth_objects" : {
    "2011-08-08" : [ {
      "links" : {
        "self" : "https://api.nasa.gov/neo/rest/v1/neo/2054509?api_key=t0TVs3DtDT2H8Oy2Zy8m2eVrNsAVKAexjcZXUckd"
      },
      "neo_reference_id" : "2054509",
      "name" : "54509 YORP (2000 PH5)",
      "nasa_jpl_url" : "http://ssd.jpl.nasa.gov/sbdb.cgi?sstr=2054509",
      "absolute_magnitude_h" : 22.7,
      "estimated_diameter" : {
        "kilometers" : {
          "estimated_diameter_min" : 0.0766575574,
          "estimated_diameter_max" : 0.1714115092
        },
        "meters" : {
          "estimated_diameter_min" : 76.6575573531,
          "estimated_diameter_max" : 171.4115092306
        },
        "miles" : {
          "estimated_diameter_min" : 0.0476327831,
          "estimated_diameter_max" : 0.1065101409
        },
        "feet" : {
          "estimated_diameter_min" : 251.5011804664,
          "estimated_diameter_max" : 562.3737359442
        }
      },
      "is_potentially_hazardous_asteroid" : false,
      "close_approach_data" : [ {
        "close_approach_date" : "2011-08-08",
        "epoch_date_close_approach" : 1312786800000,
        "relative_velocity" : {
          "kilometers_per_second" : "16.7779735937",
          "kilometers_per_hour" : "60400.7049373513",
          "miles_per_hour" : "37530.649131767"
        },
        "miss_distance" : {
          "astronomical" : "0.3296305088",
          "lunar" : "128.2262573242",
          "kilometers" : "49312020",
          "miles" : "30641068"
        },
        "orbiting_body" : "Earth"
      } ],
      "orbital_data" : {
        "orbit_id" : "85",
        "orbit_determination_date" : "2017-04-06 09:29:01",
        "orbit_uncertainty" : "0",
        "minimum_orbit_intersection" : ".00276915",
        "jupiter_tisserand_invariant" : "6.056",
        "epoch_osculation" : "2452656.5",
        "eccentricity" : ".229915281449521",
        "semi_major_axis" : "1.000041879891727",
        "inclination" : "1.833144648741673",
        "ascending_node_longitude" : "281.886883055542",
        "orbital_period" : "365.2798439455958",
        "perihelion_distance" : ".7701169696151129",
        "perihelion_argument" : "274.1047627359359",
        "aphelion_distance" : "1.229966790168342",
        "perihelion_time" : "2452765.042714405939",
        "mean_anomaly" : "253.0261884585182",
        "mean_motion" : ".9855457561288758",
        "equinox" : "J2000"
      }
    }, {
      "links" : {
        "self" : "https://api.nasa.gov/neo/rest/v1/neo/3573839?api_key=t0TVs3DtDT2H8Oy2Zy8m2eVrNsAVKAexjcZXUckd"
      },
      "neo_reference_id" : "3573839",
      "name" : "(2011 OJ10)",
      "nasa_jpl_url" : "http://ssd.jpl.nasa.gov/sbdb.cgi?sstr=3573839",
      "absolute_magnitude_h" : 22.1,
      "estimated_diameter" : {
        "kilometers" : {
          "estimated_diameter_min" : 0.1010543415,
          "estimated_diameter_max" : 0.2259643771
        },
        "meters" : {
          "estimated_diameter_min" : 101.054341542,
          "estimated_diameter_max" : 225.9643771094
        },
        "miles" : {
          "estimated_diameter_min" : 0.0627922373,
          "estimated_diameter_max" : 0.140407711
        },
        "feet" : {
          "estimated_diameter_min" : 331.5431259047,
          "estimated_diameter_max" : 741.3529669956
        }
      },
      "is_potentially_hazardous_asteroid" : false,
      "close_approach_data" : [ {
        "close_approach_date" : "2011-08-08",
        "epoch_date_close_approach" : 1312786800000,
        "relative_velocity" : {
          "kilometers_per_second" : "3.6504546935",
          "kilometers_per_hour" : "13141.6368964642",
          "miles_per_hour" : "8165.7021038058"
        },
        "miss_distance" : {
          "astronomical" : "0.2802832459",
          "lunar" : "109.0301818848",
          "kilometers" : "41929776",
          "miles" : "26053956"
        },
        "orbiting_body" : "Earth"
      } ],
      "orbital_data" : {
        "orbit_id" : "17",
        "orbit_determination_date" : "2017-04-06 08:53:08",
        "orbit_uncertainty" : "1",
        "minimum_orbit_intersection" : ".277246",
        "jupiter_tisserand_invariant" : "3.599",
        "epoch_osculation" : "2458000.5",
        "eccentricity" : ".3975887228717258",
        "semi_major_axis" : "2.143005927619138",
        "inclination" : "6.233147049727662",
        "ascending_node_longitude" : "321.4668114347105",
        "orbital_period" : "1145.865081975604",
        "perihelion_distance" : "1.290970937750507",
        "perihelion_argument" : "351.4853107372238",
        "aphelion_distance" : "2.995040917487769",
        "perihelion_time" : "2458067.295478315667",
        "mean_anomaly" : "339.0146566363803",
        "mean_motion" : ".3141731131027385",
        "equinox" : "J2000"
      }
    }, {
      "links" : {
        "self" : "https://api.nasa.gov/neo/rest/v1/neo/3574785?api_key=t0TVs3DtDT2H8Oy2Zy8m2eVrNsAVKAexjcZXUckd"
      },
      "neo_reference_id" : "3574785",
      "name" : "(2011 PU)",
      "nasa_jpl_url" : "http://ssd.jpl.nasa.gov/sbdb.cgi?sstr=3574785",
      "absolute_magnitude_h" : 21.0,
      "estimated_diameter" : {
        "kilometers" : {
          "estimated_diameter_min" : 0.1677084622,
          "estimated_diameter_max" : 0.3750075218
        },
        "meters" : {
          "estimated_diameter_min" : 167.7084621628,
          "estimated_diameter_max" : 375.0075217981
        },
        "miles" : {
          "estimated_diameter_min" : 0.1042091748,
          "estimated_diameter_max" : 0.2330187988
        },
        "feet" : {
          "estimated_diameter_min" : 550.2246310023,
          "estimated_diameter_max" : 1230.3396778159
        }
      },
      "is_potentially_hazardous_asteroid" : false,
      "close_approach_data" : [ {
        "close_approach_date" : "2011-08-08",
        "epoch_date_close_approach" : 1312786800000,
        "relative_velocity" : {
          "kilometers_per_second" : "4.8649123689",
          "kilometers_per_hour" : "17513.6845282148",
          "miles_per_hour" : "10882.322478101"
        },
        "miss_distance" : {
          "astronomical" : "0.2536981842",
          "lunar" : "98.6885910034",
          "kilometers" : "37952708",
          "miles" : "23582718"
        },
        "orbiting_body" : "Earth"
      } ],
      "orbital_data" : {
        "orbit_id" : "22",
        "orbit_determination_date" : "2017-04-06 08:53:02",
        "orbit_uncertainty" : "2",
        "minimum_orbit_intersection" : ".217628",
        "jupiter_tisserand_invariant" : "3.583",
        "epoch_osculation" : "2458000.5",
        "eccentricity" : ".4250499659367193",
        "semi_major_axis" : "2.141299320621159",
        "inclination" : "6.71266764861885",
        "ascending_node_longitude" : "305.682677342831",
        "orbital_period" : "1144.496570604695",
        "perihelion_distance" : "1.231140117330815",
        "perihelion_argument" : "9.326326147623737",
        "aphelion_distance" : "3.051458523911502",
        "perihelion_time" : "2458061.999214148160",
        "mean_anomaly" : "340.6554972186243",
        "mean_motion" : ".3145487800018431",
        "equinox" : "J2000"
      }
    } ]
  }
}